ONEWEB-0234             
1 48783U 21045S   23059.24842887 -.00000079  00000+0 -24326-3 0  9991
2 48783  87.9087 139.1153 0002064 114.4078 245.7268 13.15549358 87183
ONEWEB-0234             
1 48783U 21045S   23059.78083098 -.00000219  00000+0 -61591-3 0  9992
2 48783  87.9085 139.0094 0002080 114.2189 245.9159 13.15548695 86120
ONEWEB-0234             
1 48783U 21045S   23060.23717373 -.00000079  00000+0 -24396-3 0  9990
2 48783  87.9085 138.9191 0002083 113.5608 246.5741 13.15549605 86189
ONEWEB-0234             
1 48783U 21045S   23061.14986179  .00000015  00000+0  46260-5 0  9997
2 48783  87.9083 138.7382 0002086 113.1543 246.9807 13.15549322 87436
ONEWEB-0234             
1 48783U 21045S   23061.60620661 -.00000049  00000+0 -16343-3 0  9995
2 48783  87.9083 138.6475 0002078 112.3927 247.7424 13.15548847 86362
ONEWEB-0234             
1 48783U 21045S   23062.21466398  .00000097  00000+0  22469-3 0  9995
2 48783  87.9082 138.5267 0002096 111.7882 248.3472 13.15550324 86444
ONEWEB-0234             
1 48783U 21045S   23062.21466398  .00000097  00000+0  22469-3 0  9995
2 48783  87.9082 138.5267 0002096 111.7882 248.3472 13.15550324 87579
ONEWEB-0234             
1 48783U 21045S   23062.89918056  .00000144  00000+0  34875-3 0  9999
2 48783  87.9083 138.3910 0002090 111.4078 248.7276 13.15549450 86530
